start=new Date('2022-04-04T00:00:00.000Z').valueOf();
sats=[{"RCS_SIZE":"LARGE","RA_OF_ASC_NODE":"102.8479","GP_ID":"200376031","REF_FRAME":"TEME","TIME_SYSTEM":"UTC","EPHEMERIS_TYPE":"0","APOAPSIS":"548.432","NORAD_CAT_ID":"45399","OBJECT_TYPE":"PAYLOAD","CENTER_NAME":"EARTH","FILE":"3386965","TLE_LINE1":"1 45399U 20019AR  22093.73763847 -.00000846  00000-0 -37891-4 0  9995","OBJECT_ID":"2020-019AR","MEAN_MOTION_DOT":"-0.00000846","DECAY_DATE":null,"ELEMENT_SET_NO":"999","MEAN_ELEMENT_THEORY":"SGP4","PERIAPSIS":"546.011","MEAN_MOTION":"15.06397371","EPOCH":"2022-04-03T17:42:11.963808","LAUNCH_DATE":"2020-03-18","TLE_LINE2":"2 45399  53.0538 102.8479 0001748  45.6113 314.5019 15.06397371113524","INCLINATION":"53.0538","CLASSIFICATION_TYPE":"U","ARG_OF_PERICENTER":"45.6113","PERIOD":"95.592","MEAN_ANOMALY":"314.5019","OBJECT_NAME":"STARLINK-1255","COUNTRY_CODE":"US","MEAN_MOTION_DDOT":"0.0000000000000","SEMIMAJOR_AXIS":"6925.357","REV_AT_EPOCH":"11352","SITE":"AFETR","ECCENTRICITY":"0.00017480","BSTAR":"-0.00003789100000"},{"OBJECT_TYPE":"PAYLOAD","CENTER_NAME":"EARTH","FILE":"3386965","RCS_SIZE":"LARGE","TIME_SYSTEM":"UTC","REF_FRAME":"TEME","GP_ID":"200376281","RA_OF_ASC_NODE":"102.7948","APOAPSIS":"548.497","NORAD_CAT_ID":"45400","EPHEMERIS_TYPE":"0","DECAY_DATE":null,"ELEMENT_SET_NO":"999","PERIAPSIS":"546.027","MEAN_MOTION":"15.06384256","MEAN_ELEMENT_THEORY":"SGP4","TLE_LINE2":"2 45400  53.0517 102.7948 0001783  58.6597 301.4566 15.06384256113455","INCLINATION":"53.0517","LAUNCH_DATE":"2020-03-18","EPOCH":"2022-04-03T18:03:26.654976","TLE_LINE1":"1 45400U 20019AS  22093.75239184 -.00001234  00000-0 -63982-4 0  9994","MEAN_MOTION_DOT":"-0.00001234","OBJECT_ID":"2020-019AS","OBJECT_NAME":"STARLINK-1213","PERIOD":"95.593","MEAN_ANOMALY":"301.4566","MEAN_MOTION_DDOT":"0.0000000000000","COUNTRY_CODE":"US","ARG_OF_PERICENTER":"58.6597","CLASSIFICATION_TYPE":"U","ECCENTRICITY":"0.00017830","BSTAR":"-0.00006398200000","SEMIMAJOR_AXIS":"6925.397","SITE":"AFETR","REV_AT_EPOCH":"11345"},{"FILE":"3386965","OBJECT_TYPE":"PAYLOAD","CENTER_NAME":"EARTH","APOAPSIS":"548.320","NORAD_CAT_ID":"45401","EPHEMERIS_TYPE":"0","TIME_SYSTEM":"UTC","GP_ID":"200377033","RA_OF_ASC_NODE":"102.8088","REF_FRAME":"TEME","RCS_SIZE":"LARGE","TLE_LINE2":"2 45401  53.0530 102.8088 0001561  56.4813 303.6325 15.06391586113527","LAUNCH_DATE":"2020-03-18","INCLINATION":"53.0530","EPOCH":"2022-04-03T17:58:07.292928","MEAN_ELEMENT_THEORY":"SGP4","PERIAPSIS":"546.158","MEAN_MOTION":"15.06391586","DECAY_DATE":null,"ELEMENT_SET_NO":"999","MEAN_MOTION_DOT":"0.00000208","OBJECT_ID":"2020-019AT","TLE_LINE1":"1 45401U 20019AT  22093.74869552  .00000208  00000-0  32897-4 0  9991","MEAN_MOTION_DDOT":"0.0000000000000","COUNTRY_CODE":"US","OBJECT_NAME":"STARLINK-1256","PERIOD":"95.593","MEAN_ANOMALY":"303.6325","ARG_OF_PERICENTER":"56.4813","CLASSIFICATION_TYPE":"U","BSTAR":"0.00003289700000","ECCENTRICITY":"0.00015610","REV_AT_EPOCH":"11352","SITE":"AFETR","SEMIMAJOR_AXIS":"6925.374"},{"ECCENTRICITY":"0.00015460","BSTAR":"0.00045297000000","SEMIMAJOR_AXIS":"6925.356","REV_AT_EPOCH":"11353","SITE":"AFETR","OBJECT_NAME":"STARLINK-1257","MEAN_ANOMALY":"289.7754","PERIOD":"95.592","MEAN_MOTION_DDOT":"0.0000000000000","COUNTRY_CODE":"US","ARG_OF_PERICENTER":"70.3402","CLASSIFICATION_TYPE":"U","ELEMENT_SET_NO":"999","DECAY_DATE":null,"TLE_LINE2":"2 45402  53.0524 102.8180 0001546  70.3402 289.7754 15.06397583113530","INCLINATION":"53.0524","LAUNCH_DATE":"2020-03-18","EPOCH":"2022-04-03T17:52:49.211328","MEAN_MOTION":"15.06397583","PERIAPSIS":"546.150","MEAN_ELEMENT_THEORY":"SGP4","TLE_LINE1":"1 45402U 20019AU  22093.74501402  .00006471  00000-0  45297-3 0  9994","MEAN_MOTION_DOT":"0.00006471","OBJECT_ID":"2020-019AU","CENTER_NAME":"EARTH","OBJECT_TYPE":"PAYLOAD","FILE":"3386965","TIME_SYSTEM":"UTC","RA_OF_ASC_NODE":"102.8180","GP_ID":"200377783","REF_FRAME":"TEME","RCS_SIZE":"LARGE","NORAD_CAT_ID":"45402","APOAPSIS":"548.292","EPHEMERIS_TYPE":"0"},{"ARG_OF_PERICENTER":"60.9674","CLASSIFICATION_TYPE":"U","MEAN_MOTION_DDOT":"0.0000000000000","COUNTRY_CODE":"US","OBJECT_NAME":"STARLINK-1259","MEAN_ANOMALY":"299.1482","PERIOD":"95.592","REV_AT_EPOCH":"11354","SITE":"AFETR","SEMIMAJOR_AXIS":"6925.331","BSTAR":"-0.00009964000000","ECCENTRICITY":"0.00016680","APOAPSIS":"548.351","NORAD_CAT_ID":"45403","EPHEMERIS_TYPE":"0","RCS_SIZE":"LARGE","TIME_SYSTEM":"UTC","REF_FRAME":"TEME","GP_ID":"200376531","RA_OF_ASC_NODE":"102.1726","FILE":"3386965","CENTER_NAME":"EARTH","OBJECT_TYPE":"PAYLOAD","MEAN_MOTION_DOT":"-0.00001766","OBJECT_ID":"2020-019AV","TLE_LINE1":"1 45403U 20019AV  22093.89244114 -.00001766  00000-0 -99640-4 0  9991","MEAN_ELEMENT_THEORY":"SGP4","PERIAPSIS":"546.041","MEAN_MOTION":"15.06405620","LAUNCH_DATE":"2020-03-18","TLE_LINE2":"2 45403  53.0547 102.1726 0001668  60.9674 299.1482 15.06405620113542","INCLINATION":"53.0547","EPOCH":"2022-04-03T21:25:06.914496","ELEMENT_SET_NO":"999","DECAY_DATE":null},{"MEAN_MOTION_DOT":"-0.00001446","OBJECT_ID":"2020-019AW","TLE_LINE1":"1 45404U 20019AW  22093.50542585 -.00001446  00000-0 -78192-4 0  9997","MEAN_MOTION":"15.06390362","PERIAPSIS":"546.106","MEAN_ELEMENT_THEORY":"SGP4","TLE_LINE2":"2 45404  53.0545 103.8898 0001642  53.3099 306.8040 15.06390362113393","LAUNCH_DATE":"2020-03-18","INCLINATION":"53.0545","EPOCH":"2022-04-03T12:07:48.793440","DECAY_DATE":null,"ELEMENT_SET_NO":"999","APOAPSIS":"548.380","NORAD_CAT_ID":"45404","EPHEMERIS_TYPE":"0","RCS_SIZE":"LARGE","TIME_SYSTEM":"UTC","GP_ID":"200376781","RA_OF_ASC_NODE":"103.8898","REF_FRAME":"TEME","FILE":"3386965","OBJECT_TYPE":"PAYLOAD","CENTER_NAME":"EARTH","SITE":"AFETR","REV_AT_EPOCH":"11339","SEMIMAJOR_AXIS":"6925.378","BSTAR":"-0.00007819200000","ECCENTRICITY":"0.00016420","ARG_OF_PERICENTER":"53.3099","CLASSIFICATION_TYPE":"U","MEAN_MOTION_DDOT":"0.0000000000000","COUNTRY_CODE":"US","OBJECT_NAME":"STARLINK-1260","MEAN_ANOMALY":"306.8040","PERIOD":"95.593"},{"RCS_SIZE":"LARGE","GP_ID":"200377533","REF_FRAME":"TEME","RA_OF_ASC_NODE":"102.7651","TIME_SYSTEM":"UTC","EPHEMERIS_TYPE":"0","APOAPSIS":"548.463","NORAD_CAT_ID":"45405","OBJECT_TYPE":"PAYLOAD","CENTER_NAME":"EARTH","FILE":"3386965","TLE_LINE1":"1 45405U 20019AX  22093.75607342 -.00001127  00000-0 -56752-4 0  9992","OBJECT_ID":"2020-019AX","MEAN_MOTION_DOT":"-0.00001127","DECAY_DATE":null,"ELEMENT_SET_NO":"999","PERIAPSIS":"546.010","MEAN_MOTION":"15.06392565","MEAN_ELEMENT_THEORY":"SGP4","EPOCH":"2022-04-03T18:08:44.743488","TLE_LINE2":"2 45405  53.0551 102.7651 0001771  60.1230 299.9935 15.06392565113439","LAUNCH_DATE":"2020-03-18","INCLINATION":"53.0551","CLASSIFICATION_TYPE":"U","ARG_OF_PERICENTER":"60.1230","PERIOD":"95.593","MEAN_ANOMALY":"299.9935","OBJECT_NAME":"STARLINK-1263","COUNTRY_CODE":"US","MEAN_MOTION_DDOT":"0.0000000000000","SEMIMAJOR_AXIS":"6925.371","REV_AT_EPOCH":"11343","SITE":"AFETR","ECCENTRICITY":"0.00017710","BSTAR":"-0.00005675200000"},{"BSTAR":"0.00009993900000","ECCENTRICITY":"0.00017020","SITE":"AFETR","REV_AT_EPOCH":"11338","SEMIMAJOR_AXIS":"6925.344","COUNTRY_CODE":"US","MEAN_MOTION_DDOT":"0.0000000000000","MEAN_ANOMALY":"311.8892","PERIOD":"95.592","OBJECT_NAME":"STARLINK-1265","CLASSIFICATION_TYPE":"U","ARG_OF_PERICENTER":"48.2242","EPOCH":"2022-04-03T10:21:38.885184","LAUNCH_DATE":"2020-03-18","TLE_LINE2":"2 45406  53.0534 104.2178 0001702  48.2242 311.8892 15.06401357113386","INCLINATION":"53.0534","PERIAPSIS":"546.031","MEAN_ELEMENT_THEORY":"SGP4","MEAN_MOTION":"15.06401357","DECAY_DATE":null,"ELEMENT_SET_NO":"999","OBJECT_ID":"2020-019AY","MEAN_MOTION_DOT":"0.00001207","TLE_LINE1":"1 45406U 20019AY  22093.43170006  .00001207  00000-0  99939-4 0  9991","FILE":"3386965","OBJECT_TYPE":"PAYLOAD","CENTER_NAME":"EARTH","EPHEMERIS_TYPE":"0","APOAPSIS":"548.388","NORAD_CAT_ID":"45406","RA_OF_ASC_NODE":"104.2178","GP_ID":"200377284","REF_FRAME":"TEME","TIME_SYSTEM":"UTC","RCS_SIZE":"LARGE"},{"BSTAR":"-0.00025909000000","ECCENTRICITY":"0.00017980","REV_AT_EPOCH":"11337","SITE":"AFETR","SEMIMAJOR_AXIS":"6925.370","MEAN_MOTION_DDOT":"0.0000000000000","COUNTRY_CODE":"US","OBJECT_NAME":"STARLINK-1275","PERIOD":"95.593","MEAN_ANOMALY":"290.4524","ARG_OF_PERICENTER":"69.6658","CLASSIFICATION_TYPE":"U","TLE_LINE2":"2 45407  53.0536 104.4654 0001798  69.6658 290.4524 15.06392951113375","LAUNCH_DATE":"2020-03-18","INCLINATION":"53.0536","EPOCH":"2022-04-03T09:05:57.696000","PERIAPSIS":"545.990","MEAN_MOTION":"15.06392951","MEAN_ELEMENT_THEORY":"SGP4","DECAY_DATE":null,"ELEMENT_SET_NO":"999","MEAN_MOTION_DOT":"-0.00004138","OBJECT_ID":"2020-019AZ","TLE_LINE1":"1 45407U 20019AZ  22093.37914000 -.00004138  00000-0 -25909-3 0  9998","FILE":"3386965","CENTER_NAME":"EARTH","OBJECT_TYPE":"PAYLOAD","APOAPSIS":"548.480","NORAD_CAT_ID":"45407","EPHEMERIS_TYPE":"0","TIME_SYSTEM":"UTC","GP_ID":"200376032","REF_FRAME":"TEME","RA_OF_ASC_NODE":"104.4654","RCS_SIZE":"LARGE"},{"BSTAR":"-0.00019354000000","ECCENTRICITY":"0.00015630","REV_AT_EPOCH":"11296","SITE":"AFETR","SEMIMAJOR_AXIS":"6925.391","MEAN_MOTION_DDOT":"0.0000000000000","COUNTRY_CODE":"US","OBJECT_NAME":"STARLINK-1278","PERIOD":"95.593","MEAN_ANOMALY":"309.8780","ARG_OF_PERICENTER":"50.2346","CLASSIFICATION_TYPE":"U","INCLINATION":"53.0529","TLE_LINE2":"2 45408  53.0529 134.3985 0001563  50.2346 309.8780 15.06386294112963","LAUNCH_DATE":"2020-03-18","EPOCH":"2022-04-03T09:24:35.832096","PERIAPSIS":"546.173","MEAN_MOTION":"15.06386294","MEAN_ELEMENT_THEORY":"SGP4","DECAY_DATE":null,"ELEMENT_SET_NO":"999","MEAN_MOTION_DOT":"-0.00003162","OBJECT_ID":"2020-019BA","TLE_LINE1":"1 45408U 20019BA  22093.39208139 -.00003162  00000-0 -19354-3 0  9993","FILE":"3386965","OBJECT_TYPE":"PAYLOAD","CENTER_NAME":"EARTH","APOAPSIS":"548.338","NORAD_CAT_ID":"45408","EPHEMERIS_TYPE":"0","TIME_SYSTEM":"UTC","RA_OF_ASC_NODE":"134.3985","GP_ID":"200376282","REF_FRAME":"TEME","RCS_SIZE":"LARGE"}];
